[{"OBJECT_NAME":"STARLINK-1465","OBJECT_ID":"2020-038B","EPOCH":"2026-03-09T15:28:50.106432","MEAN_MOTION":15.49944768,"ECCENTRICITY":0.0002775,"INCLINATION":53.0523,"RA_OF_ASC_NODE":223.378,"ARG_OF_PERICENTER":263.9704,"MEAN_ANOMALY":96.0987,"EPHEMERIS_TYPE":0,"CLASSIFICATION_TYPE":"U","NORAD_CAT_ID":45731,"ELEMENT_SET_NO":999,"REV_AT_EPOCH":31637,"BSTAR":0.0018481,"MEAN_MOTION_DOT":0.00106119,"MEAN_MOTION_DDOT":0},{"OBJECT_NAME":"STARLINK-1493","OBJECT_ID":"2020-038AF","EPOCH":"2026-03-09T23:10:29.667360","MEAN_MOTION":15.5030174,"ECCENTRICITY":0.00018687,"INCLINATION":53.0528,"RA_OF_ASC_NODE":203.177,"ARG_OF_PERICENTER":31.7512,"MEAN_ANOMALY":328.3608,"EPHEMERIS_TYPE":0,"CLASSIFICATION_TYPE":"U","NORAD_CAT_ID":45759,"ELEMENT_SET_NO":999,"REV_AT_EPOCH":31668,"BSTAR":0.0020428656,"MEAN_MOTION_DOT":0.00119034,"MEAN_MOTION_DDOT":0}]
